HST                     
1 20580U 90037B   26161.23228163  .00005211  00000+0  16320-3 0  9990
2 20580  28.4709 128.1050 0001977  72.5591 287.5221 15.30670250787500
POLAR                   
1 23802U 96013A   26161.10497356  .00000119  00000+0  00000+0 0  9994
2 23802  79.8450 227.1351 6463548 209.3248  89.4153  1.29846146144768
SWAS                    
1 25560U 98071A   26161.52210156  .00003285  00000+0  21036-3 0  9993
2 25560  69.8964 244.7064 0008940 265.9858  94.0284 15.09585795496261
CXO                     
1 25867U 99040B   26164.08641897  .00000611  00000+0  00000+0 0  9998
2 25867  56.1211 116.7320 7849026 310.2825   0.0985  0.37806491 17304
XMM-NEWTON              
1 25989U 99066A   26161.36780906  .00000089  00000+0  00000+0 0  9993
2 25989  64.5271 283.0748 4677764  65.0342   0.0416  0.50122831 22976
TERRA                   
1 25994U 99068A   26161.44238609  .00000313  00000+0  72614-4 0  9993
2 25994  97.9459 211.2558 0001080 219.0291 197.8052 14.61097651408623
CLUSTER II-FM7 (SAMBA)  
1 26410U 00041A   26161.44626665  .00004459  00000+0  00000+0 0  9993
2 26410 149.9132  49.6129 9048191 266.6863 359.9829  0.44840364 20284
CLUSTER II-FM8 (TANGO)  
1 26464U 00045B   26159.43359147  .00004389  00000+0  00000+0 0  9992
2 26464 150.1534  50.2668 9049658 267.1780   3.1902  0.44405778 20277
ODIN                    
1 26702U 01007A   26161.35842201  .00160170  00000+0  11296-2 0  9991
2 26702  97.3856 201.8727 0006591 152.1113 208.0506 15.73565392388320
TIMED                   
1 26998U 01055B   26161.31765411  .00001118  00000+0  10505-3 0  9993
2 26998  74.0677 248.8498 0000726 348.4765  11.6403 14.95279916329790
CORIOLIS                
1 27640U 03001A   26161.50299727  .00000087  00000+0  61662-4 0  9999
2 27640  98.7126 168.4898 0013058 229.1413 130.8633 14.19943000213277
SORCE                   
1 27651U 03004A   26161.49808484  .00002500  00000+0  18967-3 0  9999
2 27651  39.9915 299.8412 0017440 359.6790   0.3990 15.03677240270891
MOST                    
1 27843U 03031D   26161.31240169  .00000060  00000+0  47577-4 0  9992
2 27843  98.7045 169.1343 0008674 272.8878  87.1306 14.21321067189733
SCISAT 1                
1 27858U 03036A   26161.47265779  .00000452  00000+0  62425-4 0  9998
2 27858  73.9285 184.6839 0008673 253.8930 106.1292 14.81441038230458
SWIFT                   
1 28485U 04047A   26160.80720722  .00060185  00000+0  51552-3 0  9995
2 28485  20.5518 241.7982 0002239 174.3628 185.6843 15.67639100185704
HINODE (SOLAR-B)        
1 29479U 06041A   26161.44030240  .00000623  00000+0  11543-3 0  9992
2 29479  98.0549 177.6923 0016287 312.9374  47.0465 14.68613735 53880
SHIJIAN-6 02A (SJ-6 02A)
1 29505U 06046A   26161.56100231  .00008130  00000+0  41626-3 0  9994
2 29505  97.6370 202.5781 0004065 138.9935 221.1604 15.16868837 71268
SHIJIAN-6 02B (SJ-6 02B)
1 29506U 06046B   26161.54830154  .00001595  00000+0  12821-3 0  9990
2 29506  97.7165 190.6481 0014931  79.4910 280.7996 15.01361439 69746
FGRST (GLAST)           
1 33053U 08029A   26160.96042652  .00003115  00000+0  11169-3 0  9992
2 33053  25.5821 254.6609 0007691 239.1816 120.7966 15.23913533994732
SDO                     
1 36395U 10005A   26160.45717389 -.00000063  00000+0  00000+0 0  9999
2 36395  34.6348  86.4608 0001571  53.7612 180.1782  1.00270666 59982
CRYOSAT 2               
1 36508U 10013A   26161.46516472  .00000106  00000+0  25665-4 0  9992
2 36508  92.0349 275.6679 0002206  86.9527 273.1933 14.51896993857104
X-SAT                   
1 37389U 11015C   26161.48581027  .00000347  00000+0  16513-3 0  9991
2 37389  98.3507 138.8287 0014398   7.9914 352.1493 14.25205081786721
GCOM-W1 (SHIZUKU)       
1 38337U 12025A   26161.31381294  .00000396  00000+0  98010-4 0  9990
2 38337  98.2021 101.9736 0001854  80.0811  36.6393 14.57118228748032
NUSTAR                  
1 38358U 12031A   26161.50002315  .00007767  00000+0  42671-3 0  9995
2 38358   6.0270  84.2902 0007741 357.5995  29.6336 15.08740272  1300
NEOSSAT                 
1 39089U 13009D   26161.24085862  .00000130  00000+0  59656-4 0  9991
2 39089  98.4176 341.4389 0009780 267.0777  92.9290 14.35823958695748
BRITE-AUSTRIA           
1 39091U 13009F   26161.31259206  .00000151  00000+0  66105-4 0  9997
2 39091  98.3993 340.9187 0008977 259.7198 100.2977 14.36539349696069
IRIS                    
1 39197U 13033A   26161.49809897  .00000901  00000+0  10938-3 0  9992
2 39197  97.9335   0.7961 0024056 344.3222  15.7246 14.85871874699380
HISAKI (SPRINT-A)       
1 39253U 13049A   26160.98459174  .00000121  00000+0  75873-4 0  9998
2 39253  29.7201 256.6319 0136902 318.4771  40.5470 13.55543903630444
CASSIOPE                
1 39265U 13055A   26161.46898072  .00041506 -58191-6  45653-3 0  9992
2 39265  80.9146  74.8747 0295042  84.9661 278.5176 15.24568450666642
STSAT-3                 
1 39422U 13066G   26161.52068784  .00003810  00000+0  28945-3 0  9994
2 39422  97.6211 131.5161 0011047  62.2733 297.9611 15.02718446683204
SWARM B                 
1 39451U 13067A   26161.52159375  .00003009  00000+0  10726-3 0  9992
2 39451  87.7438 344.3428 0003385  89.2291 270.9346 15.28510848682222
